COMMENT,ORIGINATOR,NORAD_CAT_ID,OBJECT_NAME,OBJECT_TYPE,CLASSIFICATION_TYPE,INTLDES,EPOCH,EPOCH_MICROSECONDS,MEAN_MOTION,ECCENTRICITY,INCLINATION,RA_OF_ASC_NODE,ARG_OF_PERICENTER,MEAN_ANOMALY,EPHEMERIS_TYPE,ELEMENT_SET_NO,REV_AT_EPOCH,BSTAR,MEAN_MOTION_DOT,MEAN_MOTION_DDOT,FILE,TLE_LINE0,TLE_LINE1,TLE_LINE2,OBJECT_ID,OBJECT_NUMBER,SEMIMAJOR_AXIS,PERIOD,APOGEE,PERIGEE,DECAYED
"GENERATED VIA SPACETRACK.ORG API","18 SPCS","48886","SPACEBEE-102","PAYLOAD","U","21059H","2022-02-07 08:43:23","66688","15.13211016","0.000849","97.5359","169.0559","187.5959","172.5145","0","999","3424","0.00038861","0.00006842","0","3294379","0 SPACEBEE-102","1 48886U 21059H   22038.36346142  .00006842  00000-0  38861-3 0  9994","2 48886  97.5359 169.0559 0008490 187.5959 172.5145 15.13211016 34243","2021-059H","48886","6904.552","95.162","532.279","520.555","0"
"GENERATED VIA SPACETRACK.ORG API","18 SPCS","48886","SPACEBEE-102","PAYLOAD","U","21059H","2022-02-07 21:25:09","667200","15.13217556","0.0008536","97.5359","169.5789","185.563","174.5508","0","999","3432","0.00036375","0.00006401","0","3294578","0 SPACEBEE-102","1 48886U 21059H   22038.89247300  .00006401  00000-0  36375-3 0  9997","2 48886  97.5359 169.5789 0008536 185.5630 174.5508 15.13217556 34327","2021-059H","48886","6904.532","95.161","532.291","520.504","0"
"GENERATED VIA SPACETRACK.ORG API","18 SPCS","48886","SPACEBEE-102","PAYLOAD","U","21059H","2022-02-08 02:10:49","582560","15.13220249","0.000855","97.5359","169.775","184.801","175.3141","0","999","3435","0.00037464","0.00006596","0","3294784","0 SPACEBEE-102","1 48886U 21059H   22039.09085165  .00006596  00000-0  37464-3 0  9994","2 48886  97.5359 169.7750 0008550 184.8010 175.3141 15.13220249 34355","2021-059H","48886","6904.524","95.161","532.292","520.486","0"
"GENERATED VIA SPACETRACK.ORG API","18 SPCS","48886","SPACEBEE-102","PAYLOAD","U","21059H","2022-02-08 08:31:42","773952","15.13223419","0.0008575","97.5359","170.0365","183.8707","176.2459","0","999","3439","0.00036206","0.00006372","0","3295096","0 SPACEBEE-102","1 48886U 21059H   22039.35535618  .00006372  00000-0  36206-3 0  9991","2 48886  97.5359 170.0365 0008575 183.8707 176.2459 15.13223419 34399","2021-059H","48886","6904.514","95.161","532.300","520.459","0"
"GENERATED VIA SPACETRACK.ORG API","18 SPCS","48886","SPACEBEE-102","PAYLOAD","U","21059H","2022-02-08 21:13:28","990848","15.13229619","0.0008633","97.5359","170.5595","181.885","178.235","0","999","3447","0.00034498","0.0000607","0","3295695","0 SPACEBEE-102","1 48886U 21059H   22039.88436332  .00006070  00000-0  34498-3 0  9998","2 48886  97.5359 170.5595 0008633 181.8850 178.2350 15.13229619 34470","2021-059H","48886","6904.496","95.161","532.321","520.400","0"
"GENERATED VIA SPACETRACK.ORG API","18 SPCS","48886","SPACEBEE-102","PAYLOAD","U","21059H","2022-02-09 08:20:01","777056","15.13236054","0.0008661","97.5358","171.0172","180.3453","179.7773","0","999","3454","0.00036642","0.00006452","0","3295936","0 SPACEBEE-102","1 48886U 21059H   22040.34724279  .00006452  00000-0  36642-3 0  9998","2 48886  97.5358 171.0172 0008661 180.3453 179.7773 15.13236054 34544","2021-059H","48886","6904.476","95.160","532.321","520.361","0"
"GENERATED VIA SPACETRACK.ORG API","18 SPCS","48886","SPACEBEE-102","PAYLOAD","U","21059H","2022-02-09 14:40:54","731712","15.13239282","0.0008691","97.5358","171.2788","179.3351","180.7893","0","999","3458","0.00037294","0.00006569","0","3295989","0 SPACEBEE-102","1 48886U 21059H   22040.61174458  .00006569  00000-0  37294-3 0  9999","2 48886  97.5358 171.2788 0008691 179.3351 180.7893 15.13239282 34582","2021-059H","48886","6904.466","95.160","532.332","520.330","0"
"GENERATED VIA SPACETRACK.ORG API","18 SPCS","48886","SPACEBEE-102","PAYLOAD","U","21059H","2022-02-10 14:29:12","853536","15.13252278","0.0008774","97.5356","172.2594","176.0794","184.0507","0","999","3473","0.0003958","0.00006979","0","3296865","0 SPACEBEE-102","1 48886U 21059H   22041.60362099  .00006979  00000-0  39580-3 0  9994","2 48886  97.5356 172.2594 0008774 176.0794 184.0507 15.13252278 34739","2021-059H","48886","6904.427","95.159","532.350","520.234","0"
"GENERATED VIA SPACETRACK.ORG API","18 SPCS","48886","SPACEBEE-102","PAYLOAD","U","21059H","2022-02-10 19:14:52","403424","15.13254854","0.0008784","97.5355","172.4555","175.4998","184.6314","0","999","3476","0.00040022","0.00007058","0","3297027","0 SPACEBEE-102","1 48886U 21059H   22041.80199541  .00007058  00000-0  40022-3 0  9998","2 48886  97.5355 172.4555 0008784 175.4998 184.6314 15.13254854 34764","2021-059H","48886","6904.419","95.159","532.349","520.219","0"
"GENERATED VIA SPACETRACK.ORG API","18 SPCS","48886","SPACEBEE-102","PAYLOAD","U","21059H","2022-02-10 20:50:05","551584","15.13257563","0.0008787","97.5355","172.5209","175.2524","184.8791","0","999","3477","0.00044758","0.00007903","0","3297147","0 SPACEBEE-102","1 48886U 21059H   22041.86811981  .00007903  00000-0  44758-3 0  9992","2 48886  97.5355 172.5209 0008787 175.2524 184.8791 15.13257563 34779","2021-059H","48886","6904.411","95.159","532.342","520.209","0"
"GENERATED VIA SPACETRACK.ORG API","18 SPCS","48886","SPACEBEE-102","PAYLOAD","U","21059H","2022-02-11 14:17:30","40512","15.13270076","0.0008835","97.5354","173.2401","173.1512","186.9842","0","999","3488","0.00050038","0.00008847","0","3297735","0 SPACEBEE-102","1 48886U 21059H   22042.59548658  .00008847  00000-0  50038-3 0  9997","2 48886  97.5354 173.2401 0008835 173.1512 186.9842 15.13270076 34884","2021-059H","48886","6904.372","95.158","532.337","520.137","0"
"GENERATED VIA SPACETRACK.ORG API","18 SPCS","48886","SPACEBEE-102","PAYLOAD","U","21059H","2022-02-11 22:13:35","586912","15.13274711","0.0008855","97.5353","173.567","172.2487","187.8882","0","999","3493","0.00047216","0.00008345","0","3298187","0 SPACEBEE-102","1 48886U 21059H   22042.92610633  .00008345  00000-0  47216-3 0  9994","2 48886  97.5353 173.5670 0008855 172.2487 187.8882 15.13274711 34937","2021-059H","48886","6904.358","95.158","532.337","520.110","0"
"GENERATED VIA SPACETRACK.ORG API","18 SPCS","48886","SPACEBEE-102","PAYLOAD","U","21059H","2022-02-11 22:13:35","586912","15.13274711","0.0008855","97.5353","173.567","172.2487","187.8882","0","999","3493","0.00047216","0.00008345","0","3298257","0 SPACEBEE-102","1 48886U 21059H   22042.92610633  .00008345  00000-0  47216-3 0  9994","2 48886  97.5353 173.5670 0008855 172.2487 187.8882 15.13274711 34937","2021-059H","48886","6904.358","95.158","532.337","520.110","0"
"GENERATED VIA SPACETRACK.ORG API","18 SPCS","48886","SPACEBEE-102","PAYLOAD","U","21059H","2022-02-12 14:05:46","219200","15.13287269","0.0008905","97.5354","174.2207","170.2033","189.9373","0","999","3503","0.00047653","0.00008426","0","3298493","0 SPACEBEE-102","1 48886U 21059H   22043.58734050  .00008426  00000-0  47653-3 0  9992","2 48886  97.5354 174.2207 0008905 170.2033 189.9373 15.13287269 35035","2021-059H","48886","6904.320","95.157","532.333","520.037","0"
"GENERATED VIA SPACETRACK.ORG API","18 SPCS","48886","SPACEBEE-102","PAYLOAD","U","21059H","2022-02-12 22:01:51","406176","15.13292735","0.0008918","97.5355","174.5476","169.2149","190.9275","0","999","3508","0.00046145","0.00008158","0","3299346","0 SPACEBEE-102","1 48886U 21059H   22043.91795609  .00008158  00000-0  46145-3 0  9993","2 48886  97.5355 174.5476 0008918 169.2149 190.9275 15.13292735 35089","2021-059H","48886","6904.304","95.157","532.326","520.011","0"
"GENERATED VIA SPACETRACK.ORG API","18 SPCS","48886","SPACEBEE-102","PAYLOAD","U","21059H","2022-02-13 07:33:09","441504","15.13301092","0.0008929","97.5356","174.9399","167.9724","192.1722","0","999","3514","0.00050104","0.00008867","0","3299542","0 SPACEBEE-102","1 48886U 21059H   22044.31469261  .00008867  00000-0  50104-3 0  9997","2 48886  97.5356 174.9399 0008929 167.9724 192.1722 15.13301092 35149","2021-059H","48886","6904.278","95.156","532.308","519.978","0"
"GENERATED VIA SPACETRACK.ORG API","18 SPCS","48886","SPACEBEE-102","PAYLOAD","U","21059H","2022-02-14 07:21:23","952672","15.1331651","0.0008985","97.536","175.9206","164.667","195.4835","0","999","3529","0.00044406","0.00007853","0","3300472","0 SPACEBEE-102","1 48886U 21059H   22045.30652723  .00007853  00000-0  44406-3 0  9996","2 48886  97.5360 175.9206 0008985 164.6670 195.4835 15.13316510 35296","2021-059H","48886","6904.231","95.155","532.300","519.893","0"
"GENERATED VIA SPACETRACK.ORG API","18 SPCS","48886","SPACEBEE-102","PAYLOAD","U","21059H","2022-02-14 15:17:28","610880","15.13319951","0.0009011","97.5362","176.2476","163.4886","196.664","0","999","3534","0.00038274","0.00006759","0","3300640","0 SPACEBEE-102","1 48886U 21059H   22045.63713670  .00006759  00000-0  38274-3 0  9991","2 48886  97.5362 176.2476 0009011 163.4886 196.6640 15.13319951 35343","2021-059H","48886","6904.221","95.155","532.307","519.864","0"
"GENERATED VIA SPACETRACK.ORG API","18 SPCS","48886","SPACEBEE-102","PAYLOAD","U","21059H","2022-02-14 15:17:28","610880","15.13319951","0.0009011","97.5362","176.2476","163.4886","196.664","0","999","3534","0.00038274","0.00006759","0","3300727","0 SPACEBEE-102","1 48886U 21059H   22045.63713670  .00006759  00000-0  38274-3 0  9991","2 48886  97.5362 176.2476 0009011 163.4886 196.6640 15.13319951 35343","2021-059H","48886","6904.221","95.155","532.307","519.864","0"
"GENERATED VIA SPACETRACK.ORG API","18 SPCS","48886","SPACEBEE-102","PAYLOAD","U","21059H","2022-02-15 07:09:37","646496","15.13328956","0.0009072","97.5365","176.9014","161.0539","199.1032","0","999","3544","0.00034254","0.00006044","0","3301229","0 SPACEBEE-102","1 48886U 21059H   22046.29835239  .00006044  00000-0  34254-3 0  9991","2 48886  97.5365 176.9014 0009072 161.0539 199.1032 15.13328956 35446","2021-059H","48886","6904.193","95.154","532.322","519.795","0"
